#aV2024  6 30  0  0  0.00000000     288 DD+AD WGS84 FIT  NGA
## 2321      0.00000000   300.00000000 60491 0.0000000000000
+   31     2  3  4  5  6  7  8  9 10 11 12 13 14 15 16 17 18
+         19 20 21 22 23 24 25 26 27 28 29 30 31 32  0  0  0
+          0  0  0  0  0  0  0  0  0  0  0  0  0  0  0  0  0
+          0  0  0  0  0  0  0  0  0  0  0  0  0  0  0  0  0
+          0  0  0  0  0  0  0  0  0  0  0  0  0  0  0  0  0
++         2  2  2  2  2  2  2  2  2  2  2  2  2  2  2  2  2
++         2  2  2  2  2  2  2  2  2  2  2  2  2  2  0  0  0
++         0  0  0  0  0  0  0  0  0  0  0  0  0  0  0  0  0
++         0  0  0  0  0  0  0  0  0  0  0  0  0  0  0  0  0
++         0  0  0  0  0  0  0  0  0  0  0  0  0  0  0  0  0
%c cc cc ccc ccc cccc cccc cccc cccc ccccc ccccc ccccc ccccc
%c cc cc ccc ccc cccc cccc cccc cccc ccccc ccccc ccccc ccccc
%f  0.0000000  0.000000000  0.00000000000  0.000000000000000
%f  0.0000000  0.000000000  0.00000000000  0.000000000000000
%i    0    0    0    0      0      0      0      0         0
%i    0    0    0    0      0      0      0      0         0
/*      NGA, ST. LOUIS,MO.                                  
/*   EPHEMERIS COMPUTED FROM 2 DAYS OF DATA                 
/*   EPOCHA v9 SMOOTHER                                     
/*   G2296 IERS2010 SATIGS SATAPC                           
*  2024  6 30 18 25  0.00000000
P  2  -2369.569133  16126.371470 -20431.958703   -407.876832                    
V  2 -25537.411969   9088.553498  10200.164333      0.072063                    
P  3   9746.093172  21108.061635 -13115.499739    437.669341                    
V  3 -12916.157430 -10060.101123 -25994.293757      0.171935                    
P  4    125.849664  24762.856867   9434.075858    394.235103                    
V  4  -5534.375818  10932.041864 -28803.451744      0.079236                    
P  5   4796.731432 -14931.458787  21239.567756   -178.151390                    
V  5  21293.209400  17224.055837   7318.250361     -0.013331                    
P  6  25872.867174  -4731.076000  -4034.768109    188.709955                    
V  6  -4468.246036   3155.799784 -31768.378884     -0.220427                    
P  7  17228.090174   8862.404146  18884.545419    -79.982375                    
V  7 -21431.353361   7825.577188  15875.218066      0.087348                    
P  8  -6084.490266  25560.232855   1540.503332    254.024003                    
V  8  -2972.458741  -2732.627633  31777.693277      0.171279                    
P  9   9395.111924  17022.662778  17986.385693    255.050837                    
V  9  -6249.952099  22232.043684 -17744.890525      0.148366                    
P 10 -21458.118481  -7560.886094 -13766.325896    -54.812669                    
V 10 -11906.872990 -13123.539627  25070.898517     -0.090387                    
P 11  21615.069731 -12206.012085   9391.534762   -696.121362                    
V 11  12135.657348   -577.440450 -28809.146074     -0.074241                    
P 12  -6019.756210 -21480.915704 -14730.074523   -518.476011                    
V 12  13840.755809  11974.889201 -23521.733545     -0.031536                    
P 13  13741.846392 -21192.413898   7599.519993    661.503076                    
V 13  -1215.949123  10236.763318  30144.010966      0.025233                    
P 14  21948.873405  10709.338525 -10664.170865    437.916261                    
V 14   7787.702456  11419.572875  27179.010882      0.090109                    
P 15   2625.478823 -26285.717931    942.848857    175.951495                    
V 15   3643.919199   2074.525691  31288.422705      0.042145                    
P 16  -9676.345659  11631.379158  21469.737602   -249.632955                    
V 16 -19139.374007 -20564.305881   2910.438973      0.107079                    
P 17  14691.590174   2583.491646 -21565.735817    686.121775                    
V 17  -7930.761244  27224.788067  -1943.876824     -0.066428                    
P 18 -17584.734605  -7938.483800  18356.358698   -631.348137                    
V 18  21951.929915  -7519.269969  17588.812854     -0.044512                    
P 19  16604.311862  -6567.260787 -19698.968811    503.871167                    
V 19  -6816.792084  23832.068437 -14207.723431      0.053992                    
P 20  13670.858189  -8884.753641  21001.619075    373.263978                    
V 20  21878.498577  15111.658502  -8020.374754     -0.004187                    
P 21  -7587.401445  16854.316028 -18230.896194    112.001255                    
V 21 -23417.019377   7254.807065  17085.928076     -0.025480                    
P 22  19586.460396   4211.972267 -16871.511574    -33.931101                    
V 22  13384.146608  18012.768747  19839.380741     -0.047359                    
P 23 -21204.328838 -15856.907789  -3188.600230    262.868558                    
V 23  -1697.504233  -4192.983712  31700.120771      0.090467                    
P 24   3762.152900 -17521.554396 -19907.689609   -480.865027                    
V 24  23286.747084  -8019.725317  12124.695611     -0.020606                    
P 25 -15608.296304 -20649.280194  -6871.933690    498.012306                    
V 25   7947.281139   3484.490968 -29740.728752      0.004454                    
P 26 -19478.827395   1656.296578  17985.077083    128.117036                    
V 26 -16982.858832 -15787.486157 -16429.116127     -0.065852                    
P 27 -12609.713813  19962.308918  11440.689179    -29.886401                    
V 27    593.349926 -15363.236922  27196.669221     -0.011142                    
P 28 -25453.892647   3866.023917  -6537.029817   -311.671862                    
V 28   6975.971761  -5219.710884 -30294.079511     -0.163262                    
P 29  -5535.115349 -20009.084908  16442.409664   -591.801555                    
V 29   7911.184148 -19530.595321 -21158.441871      0.018267                    
P 30  24348.144208   1072.697536  11022.771182   -365.609193                    
V 30 -12295.015254   6759.723923  26601.770692      0.063500                    
P 31 -24354.946403  10108.260429   4403.006894   -227.087217                    
V 31  -6311.612000  -1000.811186 -30694.448418      0.002357                    
P 32 -15313.500484     -1.347616 -21470.626504   -614.317604                    
V 32   5531.988022 -27234.414892  -4099.081501      0.015874                    
EOF
